     2.10           N: GPS NAV DATA                         RINEX VERSION / TYPE
teqc  2016Nov7      KASI/KOREA          20190709 11:02:58UTCPGM / RUN BY / DATE
    18                                                      LEAP SECONDS
Linux 2.4.20-8|Pentium IV|gcc|Linux|486/DX+                 COMMENT
    4.6566D-09  1.4901D-08 -5.9605D-08 -1.1921D-07          ION ALPHA
    8.1920D+04  8.1920D+04 -6.5536D+04 -5.2429D+05          ION BETA
    2.793967723846D-09 1.154631945610D-14   405504     2061 DELTA-UTC: A0,A1,T,W
                                                            END OF HEADER
 6 19  7  9 12  0  0.0 1.546945422888D-04-1.114131009672D-11 0.000000000000D+00
    7.400000000000D+01 1.584375000000D+01 4.291250176366D-09-1.257571971126D+00
    8.195638656616D-07 1.440900727175D-03 6.601214408875D-06 5.153613826752D+03
    2.160000000000D+05 6.705522537231D-08 2.544620974980D+00 8.195638656616D-08
    9.759815585094D-01 2.618125000000D+02-1.075514392360D+00-8.099980253833D-09
    2.553677799502D-10 1.000000000000D+00 2.061000000000D+03 0.000000000000D+00
    2.000000000000D+00 0.000000000000D+00 4.190951585770D-09 7.400000000000D+01
    2.088180000000D+05 4.000000000000D+00
29 19  7  9 11 59 44.0 1.559173688293D-04-9.777068044059D-12 0.000000000000D+00
    5.700000000000D+01-1.653125000000D+01 3.823730702303D-09 1.119446869730D+00
   -1.054257154465D-06 1.199754304253D-03 1.052953302860D-05 5.153733718872D+03
    2.159840000000D+05-1.490116119385D-08 1.564846892051D+00-1.676380634308D-08
    9.854806089030D-01 1.881562500000D+02 1.818941329270D+00-7.758537459942D-09
   -1.646497154644D-10 1.000000000000D+00 2.061000000000D+03 0.000000000000D+00
    2.000000000000D+00 0.000000000000D+00-9.778887033463D-09 5.700000000000D+01
    2.089560000000D+05 4.000000000000D+00
30 19  7  9 11 59 44.0-1.396853476763D-04-7.503331289627D-12 0.000000000000D+00
    4.800000000000D+01 6.512500000000D+01 5.226289124491D-09-2.114767631783D+00
    3.136694431305D-06 4.138404852711D-03 6.832182407379D-06 5.153783081055D+03
    2.159840000000D+05 2.421438694000D-08-5.529301392340D-01-3.725290298462D-08
    9.406718713992D-01 2.414062500000D+02-2.937292724981D+00-8.431779788901D-09
    2.592965150264D-10 1.000000000000D+00 2.061000000000D+03 0.000000000000D+00
    2.000000000000D+00 0.000000000000D+00 3.725290298462D-09 4.800000000000D+01
    2.090580000000D+05 4.000000000000D+00
13 19  7  9 12  0  0.0-5.541788414121D-05 1.705302565824D-12 0.000000000000D+00
    3.000000000000D+00 1.693750000000D+01 4.208032424298D-09-2.550161809390D-01
    7.823109626770D-07 3.544462029822D-03 1.164339482784D-05 5.153673126221D+03
    2.160000000000D+05-1.490116119385D-08-1.518488195768D+00 5.215406417847D-08
    9.675463099589D-01 1.607500000000D+02 1.251036033507D+00-7.914972547519D-09
    6.893144269984D-11 1.000000000000D+00 2.061000000000D+03 0.000000000000D+00
    2.000000000000D+00 0.000000000000D+00-1.117587089539D-08 3.000000000000D+00
    2.088180000000D+05 4.000000000000D+00
 7 19  7  9 12  0  0.0-6.081908941269D-05-7.730704965070D-12 0.000000000000D+00
    4.100000000000D+01 6.575000000000D+01 4.835558563281D-09-2.096073491726D+00
    3.097578883171D-06 1.298476953525D-02 6.794929504395D-06 5.153742315292D+03
    2.160000000000D+05 1.601874828339D-07-5.804641300209D-01-6.705522537231D-08
    9.552219829326D-01 2.436875000000D+02-2.450087201384D+00-8.137838973658D-09
    3.714440435639D-10 1.000000000000D+00 2.061000000000D+03 0.000000000000D+00
    2.000000000000D+00 0.000000000000D+00-1.117587089539D-08 4.100000000000D+01
    2.088180000000D+05 4.000000000000D+00
15 19  7  9 12  0  0.0-3.020116128027D-04 2.387423592154D-12 0.000000000000D+00
    4.000000000000D+01-1.534375000000D+01 5.191644824274D-09-1.795502337308D-01
   -6.798654794693D-07 1.144068513531D-02 1.085735857487D-05 5.153721559525D+03
    2.160000000000D+05 6.705522537231D-08-1.737576450176D+00 1.452863216400D-07
    9.276792526731D-01 1.530937500000D+02 7.844073026498D-01-8.535355531818D-09
   -3.750156209059D-11 1.000000000000D+00 2.061000000000D+03 0.000000000000D+00
    2.000000000000D+00 0.000000000000D+00-1.117587089539D-08 4.000000000000D+01
    2.088180000000D+05 4.000000000000D+00
 2 19  7  9 12  0  0.0-2.561546862125D-04-8.753886504564D-12 0.000000000000D+00
    3.400000000000D+01 2.565625000000D+01 4.821272253913D-09-1.210969593653D+00
    1.553446054459D-06 1.892333175056D-02 6.785616278648D-06 5.153743244171D+03
    2.160000000000D+05-3.352761268616D-08 2.483287309421D+00 4.693865776062D-07
    9.554087258884D-01 2.500312500000D+02-1.730776444140D+00-8.508925859488D-09
    2.075086435679D-10 1.000000000000D+00 2.061000000000D+03 0.000000000000D+00
    2.000000000000D+00 0.000000000000D+00-2.048909664154D-08 3.400000000000D+01
    2.088180000000D+05 4.000000000000D+00
 5 19  7  9 12  0  0.0 1.369044184685D-07-2.273736754432D-13 0.000000000000D+00
    4.200000000000D+01-5.212500000000D+01 4.938777148463D-09 1.472471933498D+00
   -2.665445208550D-06 5.760361091234D-03 6.649643182755D-06 5.153721078873D+03
    2.160000000000D+05-9.313225746155D-08-2.715934306983D+00 2.607703208923D-08
    9.503156833884D-01 2.492812500000D+02 7.295173304107D-01-8.408207378444D-09
   -1.814361289716D-10 1.000000000000D+00 2.061000000000D+03 0.000000000000D+00
    2.000000000000D+00 0.000000000000D+00-1.117587089539D-08 4.200000000000D+01
    2.088180000000D+05 4.000000000000D+00
